STARLINK-32614          
1 62428U 24249V   26068.04647394  .00033178  00000+0  12099-2 0  9996
2 62428  43.0018 325.6316 0001729 281.1762  78.8895 15.27574673 67625
FLOCK 4G-26             
1 62633U 25009AA  26068.80489479  .00011283  00000+0  42469-3 0  9999
2 62633  97.4054 151.3913 0001988 299.1273  60.9767 15.27281631 63733
