[{"OBJECT_NAME":"STARLINK-32614","OBJECT_ID":"2024-249V","EPOCH":"2026-03-09T01:06:55.348416","MEAN_MOTION":15.27574673,"ECCENTRICITY":0.00017291,"INCLINATION":43.0018,"RA_OF_ASC_NODE":325.6316,"ARG_OF_PERICENTER":281.1762,"MEAN_ANOMALY":78.8895,"EPHEMERIS_TYPE":0,"CLASSIFICATION_TYPE":"U","NORAD_CAT_ID":62428,"ELEMENT_SET_NO":999,"REV_AT_EPOCH":6762,"BSTAR":0.0012099413,"MEAN_MOTION_DOT":0.00033178,"MEAN_MOTION_DDOT":0},{"OBJECT_NAME":"FLOCK 4G-26","OBJECT_ID":"2025-009AA","EPOCH":"2026-03-09T19:19:02.910720","MEAN_MOTION":15.27281631,"ECCENTRICITY":0.0001988,"INCLINATION":97.4054,"RA_OF_ASC_NODE":151.3913,"ARG_OF_PERICENTER":299.1273,"MEAN_ANOMALY":60.9767,"EPHEMERIS_TYPE":0,"CLASSIFICATION_TYPE":"U","NORAD_CAT_ID":62633,"ELEMENT_SET_NO":999,"REV_AT_EPOCH":6373,"BSTAR":0.00042468806,"MEAN_MOTION_DOT":0.00011283,"MEAN_MOTION_DDOT":0}]
